{
  "norad_id": 67939,
  "name": "STARLINK-36246",
  "history": [
    {
      "epoch": "2026-03-28T09:28:22.919808Z",
      "apogee_km": 418.99052418893734,
      "perigee_km": 412.53618297502817,
      "latitude_deg": -3.8016869866922616e-05,
      "longitude_deg": 118.73208087762386,
      "height_km": 412.928050008454,
      "semi_major_axis_km": 6793.900353581983,
      "eccentricity": 0.00047501,
      "inclination_deg": 43.0003,
      "raan_deg": 86.6434,
      "arg_perigee_deg": 36.1611,
      "mean_anomaly_deg": 323.9569,
      "mean_motion_rev_day": 15.50329471
    },
    {
      "epoch": "2026-03-29T00:55:56.133696Z",
      "apogee_km": 416.0165408668918,
      "perigee_km": 413.7531059953244,
      "latitude_deg": 1.1092889489720752e-05,
      "longitude_deg": -117.56134602426322,
      "height_km": 415.0126430607263,
      "semi_major_axis_km": 6793.021823431108,
      "eccentricity": 0.0001666,
      "inclination_deg": 43.0002,
      "raan_deg": 82.8732,
      "arg_perigee_deg": 251.8109,
      "mean_anomaly_deg": 108.257,
      "mean_motion_rev_day": 15.50630233
    },
    {
      "epoch": "2026-03-30T00:07:18.072192Z",
      "apogee_km": 415.70487816258265,
      "perigee_km": 414.12861797088044,
      "latitude_deg": 3.808393880340143e-05,
      "longitude_deg": -112.00368308580137,
      "height_km": 415.0986185736579,
      "semi_major_axis_km": 6793.053748066731,
      "eccentricity": 0.00011602,
      "inclination_deg": 42.9984,
      "raan_deg": 77.2246,
      "arg_perigee_deg": 238.8204,
      "mean_anomaly_deg": 121.2543,
      "mean_motion_rev_day": 15.50619302
    },
    {
      "epoch": "2026-03-30T15:34:42.710016Z",
      "apogee_km": 416.2342288650616,
      "perigee_km": 413.44353851252527,
      "latitude_deg": 1.8551335075632255e-05,
      "longitude_deg": 11.744849207806295,
      "height_km": 414.61267868718596,
      "semi_major_axis_km": 6792.975883688793,
      "eccentricity": 0.00020541,
      "inclination_deg": 42.9982,
      "raan_deg": 73.4606,
      "arg_perigee_deg": 270.0387,
      "mean_anomaly_deg": 90.0238,
      "mean_motion_rev_day": 15.50645963
    },
    {
      "epoch": "2026-03-31T08:35:02.575680Z",
      "apogee_km": 416.5609087640696,
      "perigee_km": 413.4151484258282,
      "latitude_deg": -3.442682721070214e-05,
      "longitude_deg": 111.81852820067381,
      "height_km": 415.6260856879606,
      "semi_major_axis_km": 6793.125028594949,
      "eccentricity": 0.00023154,
      "inclination_deg": 42.9998,
      "raan_deg": 69.3155,
      "arg_perigee_deg": 236.7089,
      "mean_anomaly_deg": 123.3549,
      "mean_motion_rev_day": 15.50594896
    },
    {
      "epoch": "2026-04-01T07:46:24.451968Z",
      "apogee_km": 416.3227692183136,
      "perigee_km": 413.53353666651674,
      "latitude_deg": 6.290672317492125e-06,
      "longitude_deg": 117.37586649083975,
      "height_km": 415.06226029896345,
      "semi_major_axis_km": 6793.065152942415,
      "eccentricity": 0.0002053,
      "inclination_deg": 43.0023,
      "raan_deg": 63.6663,
      "arg_perigee_deg": 255.0827,
      "mean_anomaly_deg": 104.9806,
      "mean_motion_rev_day": 15.50615397
    },
    {
      "epoch": "2026-04-02T20:00:01.999008Z",
      "apogee_km": 427.13003022604516,
      "perigee_km": 425.7555051129766,
      "latitude_deg": 20.21228580129256,
      "longitude_deg": 80.55280680513359,
      "height_km": 426.0824877293131,
      "semi_major_axis_km": 6804.579767669511,
      "eccentricity": 0.000101,
      "inclination_deg": 43.0007,
      "raan_deg": 54.8544,
      "arg_perigee_deg": 263.8714,
      "mean_anomaly_deg": 245.804,
      "mean_motion_rev_day": 15.46681168
    },
    {
      "epoch": "2026-04-02T22:00:01.999584Z",
      "apogee_km": 428.03478931280006,
      "perigee_km": 426.7211888096108,
      "latitude_deg": -41.175264709733945,
      "longitude_deg": 141.9696712792048,
      "height_km": 439.23835911817207,
      "semi_major_axis_km": 6805.514989061205,
      "eccentricity": 9.651e-05,
      "inclination_deg": 43.0006,
      "raan_deg": 54.3704,
      "arg_perigee_deg": 254.3904,
      "mean_anomaly_deg": 359.794,
      "mean_motion_rev_day": 15.46362359
    },
    {
      "epoch": "2026-04-03T20:00:01.999008Z",
      "apogee_km": 439.47074624716606,
      "perigee_km": 437.96013174668406,
      "latitude_deg": -27.923376802674245,
      "longitude_deg": -117.5260031235005,
      "height_km": 445.6187842791732,
      "semi_major_axis_km": 6816.852438996924,
      "eccentricity": 0.0001108,
      "inclination_deg": 43.001,
      "raan_deg": 49.0588,
      "arg_perigee_deg": 251.6664,
      "mean_anomaly_deg": 65.2677,
      "mean_motion_rev_day": 15.42506214
    },
    {
      "epoch": "2026-04-04T20:00:01.999008Z",
      "apogee_km": 451.93016379312303,
      "perigee_km": 450.24880823226704,
      "latitude_deg": 40.29396678321954,
      "longitude_deg": 25.433224877731845,
      "height_km": 454.3879041644639,
      "semi_major_axis_km": 6829.226486012695,
      "eccentricity": 0.0001231,
      "inclination_deg": 43.0007,
      "raan_deg": 43.3017,
      "arg_perigee_deg": 266.4446,
      "mean_anomaly_deg": 202.6012,
      "mean_motion_rev_day": 15.38315755
    },
    {
      "epoch": "2026-04-05T14:00:03.000384Z",
      "apogee_km": 461.23709630264966,
      "perigee_km": 459.46510726571614,
      "latitude_deg": -34.93717663652053,
      "longitude_deg": -53.05020176177156,
      "height_km": 469.8062205953651,
      "semi_major_axis_km": 6838.488101784183,
      "eccentricity": 0.00012956,
      "inclination_deg": 43.0001,
      "raan_deg": 39.0067,
      "arg_perigee_deg": 248.8195,
      "mean_anomaly_deg": 54.4468,
      "mean_motion_rev_day": 15.35191717
    },
    {
      "epoch": "2026-04-05T20:00:03.000384Z",
      "apogee_km": 464.2567406081307,
      "perigee_km": 462.8979761365572,
      "latitude_deg": -38.74447379147777,
      "longitude_deg": 142.27267796312236,
      "height_km": 474.4473972129481,
      "semi_major_axis_km": 6841.714358372344,
      "eccentricity": 9.93e-05,
      "inclination_deg": 43.0009,
      "raan_deg": 37.5801,
      "arg_perigee_deg": 261.6556,
      "mean_anomaly_deg": 344.4463,
      "mean_motion_rev_day": 15.3410595
    },
    {
      "epoch": "2026-04-06T06:00:02.000160Z",
      "apogee_km": 469.7669206140281,
      "perigee_km": 467.81116465920877,
      "latitude_deg": 19.150504226012693,
      "longitude_deg": 132.39175535205382,
      "height_km": 468.7330747180048,
      "semi_major_axis_km": 6846.926042636618,
      "eccentricity": 0.00014282,
      "inclination_deg": 43.0014,
      "raan_deg": 35.2087,
      "arg_perigee_deg": 255.8245,
      "mean_anomaly_deg": 132.8234,
      "mean_motion_rev_day": 15.32354707
    },
    {
      "epoch": "2026-04-07T20:00:00.999360Z",
      "apogee_km": 484.53471935335074,
      "perigee_km": 481.72297260966843,
      "latitude_deg": 37.98927909604845,
      "longitude_deg": 13.73574375703196,
      "height_km": 486.13531470854053,
      "semi_major_axis_km": 6861.265845981509,
      "eccentricity": 0.0002049,
      "inclination_deg": 43.0002,
      "raan_deg": 26.2393,
      "arg_perigee_deg": 248.8671,
      "mean_anomaly_deg": 227.0426,
      "mean_motion_rev_day": 15.27553367
    },
    {
      "epoch": "2026-04-08T14:00:04.999680Z",
      "apogee_km": 484.5979627269062,
      "perigee_km": 481.4725615380594,
      "latitude_deg": -41.26572388783442,
      "longitude_deg": -94.21055349465169,
      "height_km": 494.32149099721363,
      "semi_major_axis_km": 6861.1722621324825,
      "eccentricity": 0.00022776,
      "inclination_deg": 43.0009,
      "raan_deg": 22.0026,
      "arg_perigee_deg": 250.545,
      "mean_anomaly_deg": 34.8797,
      "mean_motion_rev_day": 15.2758462
    },
    {
      "epoch": "2026-04-09T20:00:01.999008Z",
      "apogee_km": 484.58139931429105,
      "perigee_km": 481.5665832047316,
      "latitude_deg": -21.664515942983485,
      "longitude_deg": -148.20267106133,
      "height_km": 487.56868425178254,
      "semi_major_axis_km": 6861.2109912595115,
      "eccentricity": 0.0002197,
      "inclination_deg": 43.0006,
      "raan_deg": 14.9447,
      "arg_perigee_deg": 256.419,
      "mean_anomaly_deg": 71.0439,
      "mean_motion_rev_day": 15.27571686
    },
    {
      "epoch": "2026-04-10T12:00:02.000160Z",
      "apogee_km": 484.6558758560004,
      "perigee_km": 481.33920341953944,
      "latitude_deg": 24.895138860114837,
      "longitude_deg": 22.10009040522658,
      "height_km": 483.98465467763674,
      "semi_major_axis_km": 6861.13453963777,
      "eccentricity": 0.0002417,
      "inclination_deg": 43.0011,
      "raan_deg": 11.1784,
      "arg_perigee_deg": 264.5168,
      "mean_anomaly_deg": 133.428,
      "mean_motion_rev_day": 15.27597218
    },
    {
      "epoch": "2026-04-11T17:39:05.548896Z",
      "apogee_km": 484.24768838444834,
      "perigee_km": 481.7516068720406,
      "latitude_deg": -5.395368610178056e-07,
      "longitude_deg": -100.52132241614285,
      "height_km": 482.5688477834082,
      "semi_major_axis_km": 6861.136647628244,
      "eccentricity": 0.0001819,
      "inclination_deg": 42.9988,
      "raan_deg": 4.2025,
      "arg_perigee_deg": 279.5803,
      "mean_anomaly_deg": 80.4843,
      "mean_motion_rev_day": 15.27596514
    },
    {
      "epoch": "2026-04-12T23:28:04.282176Z",
      "apogee_km": 484.38423476524986,
      "perigee_km": 481.6850498411677,
      "latitude_deg": -1.4472708583751224e-05,
      "longitude_deg": 163.99282727725583,
      "height_km": 482.8171054088123,
      "semi_major_axis_km": 6861.1716423032085,
      "eccentricity": 0.0001967,
      "inclination_deg": 43.0008,
      "raan_deg": 357.1859,
      "arg_perigee_deg": 269.7782,
      "mean_anomaly_deg": 90.2844,
      "mean_motion_rev_day": 15.27584827
    }
  ]
}